{"type": "FeatureCollection", "features": [ {"type": "Feature", "properties": {"norad_id": 66909, "name": "SILVERSAT", "group": "last-30-days", "lat": 49.00359304488464, "lon": 144.70665479238494, "alt_km": 401.87453259456197, "timestamp": "2025-12-25T11:37:43.134963+00:00", "meta": {"OBJECT_NAME": "SILVERSAT", "OBJECT_ID": "1998-067XV", "EPOCH": "2025-12-24T12:08:54.950784", "MEAN_MOTION": 15.53202951, "ECCENTRICITY": 0.00038249, "INCLINATION": 51.631, "RA_OF_ASC_NODE": 83.8633, "ARG_OF_PERICENTER": 300.8028, "MEAN_ANOMALY": 59.2585, "EPHEMERIS_TYPE": 0, "CLASSIFICATION_TYPE": "U", "NORAD_CAT_ID": 66909, "ELEMENT_SET_NO": 999, "REV_AT_EPOCH": 344, "BSTAR": 0.0011617624, "MEAN_MOTION_DOT": 0.00074602, "MEAN_MOTION_DDOT": 0}, "tle": {"line1": "1 66909U 98067XV  25358.50619156  .00074602  00000+0  11618-2 0  9993", "line2": "2 66909  51.6310  83.8633 0003824 300.8028  59.2585 15.53202951  3445"}}, "geometry": {"type": "Point", "coordinates": [144.70665479238494, 49.00359304488464]}}, {"type": "Feature", "properties": {"norad_id": 66910, "name": "1998-067XW", "group": "last-30-days", "lat": 51.1494803010829, "lon": 158.58247056753248, "alt_km": 402.7228281454127, "timestamp": "2025-12-25T11:37:43.134975+00:00", "meta": {"OBJECT_NAME": "1998-067XW", "OBJECT_ID": "1998-067XW", "EPOCH": "2025-12-24T15:11:47.467392", "MEAN_MOTION": 15.53149596, "ECCENTRICITY": 0.00038741, "INCLINATION": 51.6312, "RA_OF_ASC_NODE": 83.2108, "ARG_OF_PERICENTER": 273.1727, "MEAN_ANOMALY": 86.882, "EPHEMERIS_TYPE": 0, "CLASSIFICATION_TYPE": "U", "NORAD_CAT_ID": 66910, "ELEMENT_SET_NO": 999, "REV_AT_EPOCH": 346, "BSTAR": 0.0010215807, "MEAN_MOTION_DOT": 0.00065339, "MEAN_MOTION_DDOT": 0}, "tle": {"line1": "1 66910U 98067XW  25358.63318828  .00065339  00000+0  10216-2 0  9991", "line2": "2 66910  51.6312  83.2108 0003874 273.1727  86.8820 15.53149596  3468"}}, "geometry": {"type": "Point", "coordinates": [158.58247056753248, 51.1494803010829]}}, {"type": "Feature", "properties": {"norad_id": 66911, "name": "1998-067XX", "group": "last-30-days", "lat": 49.012409002087594, "lon": -166.8331927587575, "alt_km": 401.3241408945105, "timestamp": "2025-12-25T11:37:43.134985+00:00", "meta": {"OBJECT_NAME": "1998-067XX", "OBJECT_ID": "1998-067XX", "EPOCH": "2025-12-24T22:49:37.454880", "MEAN_MOTION": 15.53703475, "ECCENTRICITY": 0.0003529, "INCLINATION": 51.6305, "RA_OF_ASC_NODE": 81.585, "ARG_OF_PERICENTER": 283.5602, "MEAN_ANOMALY": 76.4995, "EPHEMERIS_TYPE": 0, "CLASSIFICATION_TYPE": "U", "NORAD_CAT_ID": 66911, "ELEMENT_SET_NO": 999, "REV_AT_EPOCH": 350, "BSTAR": 0.0011925, "MEAN_MOTION_DOT": 0.00078033, "MEAN_MOTION_DDOT": 0}, "tle": {"line1": "1 66911U 98067XX  25358.95112795  .00078033  00000+0  11925-2 0  9995", "line2": "2 66911  51.6305  81.5850 0003529 283.5602  76.4995 15.53703475  3505"}}, "geometry": {"type": "Point", "coordinates": [-166.8331927587575, 49.012409002087594]}}, {"type": "Feature", "properties": {"norad_id": 66912, "name": "1998-067XY", "group": "last-30-days", "lat": 24.16932559966735, "lon": 99.90591149819565, "alt_km": 407.3243028358693, "timestamp": "2025-12-25T11:37:43.134997+00:00", "meta": {"OBJECT_NAME": "1998-067XY", "OBJECT_ID": "1998-067XY", "EPOCH": "2025-12-24T12:19:04.376640", "MEAN_MOTION": 15.52269671, "ECCENTRICITY": 0.00038943, "INCLINATION": 51.6319, "RA_OF_ASC_NODE": 83.9109, "ARG_OF_PERICENTER": 289.4763, "MEAN_ANOMALY": 70.5806, "EPHEMERIS_TYPE": 0, "CLASSIFICATION_TYPE": "U", "NORAD_CAT_ID": 66912, "ELEMENT_SET_NO": 999, "REV_AT_EPOCH": 343, "BSTAR": 0.00087040154, "MEAN_MOTION_DOT": 0.00053773, "MEAN_MOTION_DDOT": 0}, "tle": {"line1": "1 66912U 98067XY  25358.51324510  .00053773  00000+0  87040-3 0  9994", "line2": "2 66912  51.6319  83.9109 0003894 289.4763  70.5806 15.52269671  3434"}}, "geometry": {"type": "Point", "coordinates": [99.90591149819565, 24.16932559966735]}}, {"type": "Feature", "properties": {"norad_id": 66913, "name": "2025-284A", "group": "last-30-days", "lat": -54.18480732634457, "lon": 100.20701758095383, "alt_km": 540.7860510747541, "timestamp": "2025-12-25T11:37:43.135007+00:00", "meta": {"OBJECT_NAME": "2025-284A", "OBJECT_ID": "2025-284A", "EPOCH": "2025-12-23T02:34:46.438752", "MEAN_MOTION": 15.08893564, "ECCENTRICITY": 0.0013475, "INCLINATION": 80.4035, "RA_OF_ASC_NODE": 116.7336, "ARG_OF_PERICENTER": 259.6514, "MEAN_ANOMALY": 100.3189, "EPHEMERIS_TYPE": 0, "CLASSIFICATION_TYPE": "U", "NORAD_CAT_ID": 66913, "ELEMENT_SET_NO": 999, "REV_AT_EPOCH": 269, "BSTAR": 0.00055263602, "MEAN_MOTION_DOT": 8.748e-05, "MEAN_MOTION_DDOT": 0}, "tle": {"line1": "1 66913U 25284A   25357.10748193  .00008748  00000+0  55264-3 0  9992", "line2": "2 66913  80.4035 116.7336 0013475 259.6514 100.3189 15.08893564  2694"}}, "geometry": {"type": "Point", "coordinates": [100.20701758095383, -54.18480732634457]}}, {"type": "Feature", "properties": {"norad_id": 66914, "name": "2025-284B", "group": "last-30-days", "lat": -54.53097040887713, "lon": -52.65403832301129, "alt_km": 510.6007531827854, "timestamp": "2025-12-25T11:37:43.135017+00:00", "meta": {"OBJECT_NAME": "2025-284B", "OBJECT_ID": "2025-284B", "EPOCH": "2025-12-16T06:51:11.417184", "MEAN_MOTION": 15.18985981, "ECCENTRICITY": 0.00081793, "INCLINATION": 80.4045, "RA_OF_ASC_NODE": 125.2713, "ARG_OF_PERICENTER": 234.9626, "MEAN_ANOMALY": 125.0834, "EPHEMERIS_TYPE": 0, "CLASSIFICATION_TYPE": "U", "NORAD_CAT_ID": 66914, "ELEMENT_SET_NO": 999, "REV_AT_EPOCH": 166, "BSTAR": 0.00038444995, "MEAN_MOTION_DOT": 8.068e-05, "MEAN_MOTION_DDOT": 0}, "tle": {"line1": "1 66914U 25284B   25350.28554881  .00008068  00000+0  38445-3 0  9991", "line2": "2 66914  80.4045 125.2713 0008179 234.9626 125.0834 15.18985981  1668"}}, "geometry": {"type": "Point", "coordinates": [-52.65403832301129, -54.53097040887713]}}, {"type": "Feature", "properties": {"norad_id": 66915, "name": "HULIANWANG DIGUI-105", "group": "last-30-days", "lat": -11.317239562337988, "lon": -104.95360697238011, "alt_km": 886.6451406579008, "timestamp": "2025-12-25T11:37:43.135027+00:00", "meta": {"OBJECT_NAME": "HULIANWANG DIGUI-105", "OBJECT_ID": "2025-285A", "EPOCH": "2025-12-25T05:34:42.009888", "MEAN_MOTION": 14.03719893, "ECCENTRICITY": 0.0008122, "INCLINATION": 50.0055, "RA_OF_ASC_NODE": 66.4015, "ARG_OF_PERICENTER": 324.4204, "MEAN_ANOMALY": 35.6158, "EPHEMERIS_TYPE": 0, "CLASSIFICATION_TYPE": "U", "NORAD_CAT_ID": 66915, "ELEMENT_SET_NO": 999, "REV_AT_EPOCH": 266, "BSTAR": 0.00012131, "MEAN_MOTION_DOT": 4.1e-07, "MEAN_MOTION_DDOT": 0}, "tle": {"line1": "1 66915U 25285A   25359.23243067  .00000041  00000+0  12131-3 0  9995", "line2": "2 66915  50.0055  66.4015 0008122 324.4204  35.6158 14.03719893  2665"}}, "geometry": {"type": "Point", "coordinates": [-104.95360697238011, -11.317239562337988]}}, {"type": "Feature", "properties": {"norad_id": 66916, "name": "HULIANWANG DIGUI-106", "group": "last-30-days", "lat": -21.970032078224225, "lon": -94.85568533430113, "alt_km": 885.556751423509, "timestamp": "2025-12-25T11:37:43.135040+00:00", "meta": {"OBJECT_NAME": "HULIANWANG DIGUI-106", "OBJECT_ID": "2025-285B", "EPOCH": "2025-12-25T05:30:35.666208", "MEAN_MOTION": 14.03704669, "ECCENTRICITY": 0.0006907, "INCLINATION": 50.0065, "RA_OF_ASC_NODE": 66.3886, "ARG_OF_PERICENTER": 317.7053, "MEAN_ANOMALY": 42.3318, "EPHEMERIS_TYPE": 0, "CLASSIFICATION_TYPE": "U", "NORAD_CAT_ID": 66916, "ELEMENT_SET_NO": 999, "REV_AT_EPOCH": 266, "BSTAR": 0.00010828, "MEAN_MOTION_DOT": 2e-07, "MEAN_MOTION_DDOT": 0}, "tle": {"line1": "1 66916U 25285B   25359.22957947  .00000020  00000+0  10828-3 0  9992", "line2": "2 66916  50.0065  66.3886 0006907 317.7053  42.3318 14.03704669  2666"}}, "geometry": {"type": "Point", "coordinates": [-94.85568533430113, -21.970032078224225]}}, {"type": "Feature", "properties": {"norad_id": 66917, "name": "HULIANWANG DIGUI-107", "group": "last-30-days", "lat": -28.056296091747058, "lon": -88.09398394564501, "alt_km": 886.3842377724377, "timestamp": "2025-12-25T11:37:43.135050+00:00", "meta": {"OBJECT_NAME": "HULIANWANG DIGUI-107", "OBJECT_ID": "2025-285C", "EPOCH": "2025-12-25T05:28:07.149792", "MEAN_MOTION": 14.0366476, "ECCENTRICITY": 0.0007537, "INCLINATION": 50.003, "RA_OF_ASC_NODE": 66.3714, "ARG_OF_PERICENTER": 327.0798, "MEAN_ANOMALY": 32.9636, "EPHEMERIS_TYPE": 0, "CLASSIFICATION_TYPE": "U", "NORAD_CAT_ID": 66917, "ELEMENT_SET_NO": 999, "REV_AT_EPOCH": 266, "BSTAR": 0.00012129, "MEAN_MOTION_DOT": 4e-07, "MEAN_MOTION_DDOT": 0}, "tle": {"line1": "1 66917U 25285C   25359.22786053  .00000040  00000+0  12129-3 0  9999", "line2": "2 66917  50.0030  66.3714 0007537 327.0798  32.9636 14.03664760  2664"}}, "geometry": {"type": "Point", "coordinates": [-88.09398394564501, -28.056296091747058]}}, {"type": "Feature", "properties": {"norad_id": 66918, "name": "HULIANWANG DIGUI-108", "group": "last-30-days", "lat": -30.021803646544853, "lon": -85.65711308785505, "alt_km": 885.8423344882804, "timestamp": "2025-12-25T11:37:43.135059+00:00", "meta": {"OBJECT_NAME": "HULIANWANG DIGUI-108", "OBJECT_ID": "2025-285D", "EPOCH": "2025-12-25T05:27:16.697376", "MEAN_MOTION": 14.03603814, "ECCENTRICITY": 0.0006679, "INCLINATION": 50.0063, "RA_OF_ASC_NODE": 66.3731, "ARG_OF_PERICENTER": 321.6771, "MEAN_ANOMALY": 38.3658, "EPHEMERIS_TYPE": 0, "CLASSIFICATION_TYPE": "U", "NORAD_CAT_ID": 66918, "ELEMENT_SET_NO": 999, "REV_AT_EPOCH": 266, "BSTAR": 0.0001138, "MEAN_MOTION_DOT": 2.8e-07, "MEAN_MOTION_DDOT": 0}, "tle": {"line1": "1 66918U 25285D   25359.22727659  .00000028  00000+0  11380-3 0  9991", "line2": "2 66918  50.0063  66.3731 0006679 321.6771  38.3658 14.03603814  2664"}}, "geometry": {"type": "Point", "coordinates": [-85.65711308785505, -30.021803646544853]}}]}